OBJECT_NAME,OBJECT_ID,EPOCH,MEAN_MOTION,ECCENTRICITY,INCLINATION,RA_OF_ASC_NODE,ARG_OF_PERICENTER,MEAN_ANOMALY,EPHEMERIS_TYPE,CLASSIFICATION_TYPE,NORAD_CAT_ID,ELEMENT_SET_NO,REV_AT_EPOCH,BSTAR,MEAN_MOTION_DOT,MEAN_MOTION_DDOT
COSMO-SKYMED 1,2007-023A,2026-07-14T04:52:10.363008,14.97216583,.0001338,97.8844,27.2873,103.3925,256.7446,0,U,31598,999,3383,.12599E-3,.1398E-4,0
COSMOS 2428,2007-029A,2026-07-13T16:36:41.759136,14.12933515,.0007203,70.9381,298.8270,84.1445,276.0497,0,U,31792,999,98189,.13714E-3,.208E-5,0
SL-16 R/B,2007-029B,2026-07-14T04:20:46.112064,14.14851357,.0001988,70.9745,266.4847,256.0619,132.6386,0,U,31793,999,98326,.94854E-4,.135E-5,0
KORONAS-FOTON,2009-003A,2026-07-13T20:59:36.324672,15.46278814,.0012285,82.4305,144.4094,66.2875,293.9661,0,U,33504,999,96522,.16498E-3,.8185E-4,0
CZ-2C R/B,2011-030B,2026-07-13T20:30:25.125408,14.81530988,.0050869,97.8668,149.7626,300.6468,120.5990,0,U,37731,999,80877,.72806E-4,.528E-5,0
H-2A R/B,2012-025E,2026-07-13T23:33:55.043712,14.95836022,.0042426,98.4847,172.3414,259.2239,100.4203,0,U,38341,999,76709,.54703E-4,.55E-5,0
SHIJIAN-16 (SJ-16),2013-057A,2026-07-14T04:24:45.033984,14.92668562,.0015818,74.9739,305.5494,167.1626,192.9969,0,U,39358,999,69037,.6332E-4,.625E-5,0
SL-4 R/B,2014-021B,2026-07-13T22:55:31.912608,15.42466475,.0089754,51.6064,79.5833,203.9145,155.7659,0,U,39679,999,67574,.1449E-3,.6912E-4,0
ALOS-2,2014-029A,2026-07-14T04:36:55.734336,14.79472258,.0001601,97.9233,291.9699,92.8596,267.2799,0,U,39766,999,65557,.85072E-4,.584E-5,0
YAOGAN-29,2015-069A,2026-07-14T05:34:32.021184,14.83105383,.0000782,98.0022,223.9064,13.5856,346.5379,0,U,41038,999,57463,.35332E-4,.234E-5,0
ASTRO-H (HITOMI),2016-012A,2026-07-13T11:10:10.204032,15.10628471,.00096072,30.9985,264.4618,157.9025,202.2028,0,U,41337,999,57126,.79367893E-4,.1442E-4,0
HXMT (HUIYAN),2017-034A,2026-07-14T00:51:56.196576,15.18682725,.0032417,43.0153,33.5161,313.6575,46.1587,0,U,42758,999,50174,.12173E-3,.2357E-4,0
SAOCOM 1A,2018-076A,2026-07-14T03:21:58.508928,14.82146577,.0001454,97.8881,21.4972,86.6769,273.4611,0,U,43641,999,42009,.42197E-4,.284E-5,0
H-2A R/B,2018-084L,2026-07-14T04:31:11.195328,15.46176958,.0020629,98.8536,79.9969,304.2888,55.6403,0,U,43682,999,42529,.25778E-3,.12636E-3,0
SAOCOM 1B,2020-059A,2026-07-14T04:06:55.018368,14.82157348,.000157,97.8886,20.6244,79.6811,280.4579,0,U,46265,999,31748,-.74315E-5,-.111E-5,0
CSS (TIANHE),2021-035A,2026-07-14T04:32:42.641088,15.58062507,.0002447,41.4690,157.9320,303.4143,56.6460,0,U,48274,999,29738,.14292E-4,.775E-5,0
COSMOS 2550,2021-056A,2026-07-14T02:03:08.116704,15.33821705,.0008499,67.1433,18.5402,270.7716,89.2464,0,U,48865,999,28284,.11073E-3,.3452E-4,0
CZ-2C R/B,2022-058K,2026-07-13T23:14:35.909952,15.63792673,.0030357,50.1857,23.9648,17.4301,342.7709,0,U,52794,999,22983,.29651E-3,.28571E-3,0
CZ-2C R/B,2022-132E,2026-07-13T23:52:37.738272,15.74867223,.000967,97.2885,203.2817,348.0277,12.0756,0,U,54039,999,21016,.32776E-3,.48489E-3,0
GSLV R/B,2022-138AN,2026-07-14T04:25:31.754784,14.97379841,.0023645,87.3819,123.9189,55.5171,304.8289,0,U,54149,999,20285,.10682E-3,.1277E-4,0
XRISM,2023-137A,2026-07-14T02:44:59.360352,15.12664469,.0007907,31.0007,185.1463,235.5039,124.4854,0,U,57800,999,15694,.10463E-3,.1975E-4,0
ACS3,2024-077B,2026-07-14T04:17:12.397344,13.95298697,.0124346,97.1735,107.9844,37.9191,323.0652,0,U,59588,999,11180,.20356E-2,.291E-4,0
SPACEMOBILE-003,2024-163A,2026-07-14T03:52:59.621088,15.20702085,.00048,52.9668,185.3958,190.5328,169.5566,0,U,61045,999,10187,.38587E-4,.532E-5,0
SPACEMOBILE-005,2024-163B,2026-07-13T02:14:56.738400,15.20746160,.00085164,52.9757,190.2542,188.4778,171.6074,0,U,61046,999,10170,.29081362E-4,.32E-5,0
SPACEMOBILE-001,2024-163C,2026-07-11T10:46:43.885920,15.20792937,.00074751,52.9736,197.5273,183.3179,176.7767,0,U,61047,999,10145,.28550562E-4,.309E-5,0
SPACEMOBILE-002,2024-163D,2026-07-14T03:03:37.105920,15.20784147,.0006347,52.9768,185.2488,186.0416,174.0502,0,U,61048,999,10186,.39857E-3,.8581E-4,0
SPACEMOBILE-004,2024-163E,2026-07-12T09:38:01.727232,15.20795560,.0006853,52.9682,192.9673,216.7757,143.2768,0,U,61049,999,10160,.58302E-3,.12717E-3,0
CZ-8A R/B,2025-231K,2026-07-13T12:49:39.947232,14.30161916,.0116553,50.0044,287.2242,316.7652,42.4160,0,U,66004,999,3871,.28262E-4,-.85E-6,0
SZ-21 MODULE,2025-246C,2026-07-13T22:19:58.566144,15.78722659,.0008041,41.4711,140.4717,212.4779,147.5572,0,U,66515,999,3796,.19171E-3,.34507E-3,0
SPACEMOBILE-006,2025-309A,2026-07-14T00:37:50.130624,15.18651444,.0010252,52.9935,208.6897,211.3780,148.6603,0,U,67232,999,3067,.3859E-4,.488E-5,0
