COSMO-SKYMED 1          
1 31598U 07023A   26195.20289772  .00001398  00000+0  12599-3 0  9997
2 31598  97.8844  27.2873 0001338 103.3925 256.7446 14.97216583 33832
COSMOS 2428             
1 31792U 07029A   26194.69214999  .00000208  00000+0  13714-3 0  9999
2 31792  70.9381 298.8270 0007203  84.1445 276.0497 14.12933515981890
SL-16 R/B               
1 31793U 07029B   26195.18108926  .00000135  00000+0  94854-4 0  9991
2 31793  70.9745 266.4847 0001988 256.0619 132.6386 14.14851357983265
KORONAS-FOTON           
1 33504U 09003A   26194.87472598  .00008185  00000+0  16498-3 0  9991
2 33504  82.4305 144.4094 0012285  66.2875 293.9661 15.46278814965223
CZ-2C R/B               
1 37731U 11030B   26194.85445747  .00000528  00000+0  72806-4 0  9993
2 37731  97.8668 149.7626 0050869 300.6468 120.5990 14.81530988808770
H-2A R/B                
1 38341U 12025E   26194.98188708  .00000550  00000+0  54703-4 0  9992
2 38341  98.4847 172.3414 0042426 259.2239 100.4203 14.95836022767092
SHIJIAN-16 (SJ-16)      
1 39358U 13057A   26195.18385456  .00000625  00000+0  63320-4 0  9997
2 39358  74.9739 305.5494 0015818 167.1626 192.9969 14.92668562690370
SL-4 R/B                
1 39679U 14021B   26194.95523047  .00006912  00000+0  14490-3 0  9997
2 39679  51.6064  79.5833 0089754 203.9145 155.7659 15.42466475675741
ALOS-2                  
1 39766U 14029A   26195.19231174  .00000584  00000+0  85072-4 0  9990
2 39766  97.9233 291.9699 0001601  92.8596 267.2799 14.79472258655577
YAOGAN-29               
1 41038U 15069A   26195.23231506  .00000234  00000+0  35332-4 0  9990
2 41038  98.0022 223.9064 0000782  13.5856 346.5379 14.83105383574638
ASTRO-H (HITOMI)        
1 41337U 16012A   26194.46539588  .00001442  00000+0  79368-4 0  9995
2 41337  30.9985 264.4618 0009607 157.9025 202.2028 15.10628471571268
HXMT (HUIYAN)           
1 42758U 17034A   26195.03606709  .00002357  00000+0  12173-3 0  9998
2 42758  43.0153  33.5161 0032417 313.6575  46.1587 15.18682725501743
SAOCOM 1A               
1 43641U 18076A   26195.14026052  .00000284  00000+0  42197-4 0  9993
2 43641  97.8881  21.4972 0001454  86.6769 273.4611 14.82146577420096
H-2A R/B                
1 43682U 18084L   26195.18832402  .00012636  00000+0  25778-3 0  9994
2 43682  98.8536  79.9969 0020629 304.2888  55.6403 15.46176958425292
SAOCOM 1B               
1 46265U 20059A   26195.17147012 -.00000111  00000+0 -74315-5 0  9994
2 46265  97.8886  20.6244 0001570  79.6811 280.4579 14.82157348317485
CSS (TIANHE)            
1 48274U 21035A   26195.18938242  .00000775  00000+0  14292-4 0  9996
2 48274  41.4690 157.9320 0002447 303.4143  56.6460 15.58062507297388
COSMOS 2550             
1 48865U 21056A   26195.08551061  .00003452  00000+0  11073-3 0  9992
2 48865  67.1433  18.5402 0008499 270.7716  89.2464 15.33821705282849
CZ-2C R/B               
1 52794U 22058K   26194.96847118  .00028571  00000+0  29651-3 0  9998
2 52794  50.1857  23.9648 0030357  17.4301 342.7709 15.63792673229836
CZ-2C R/B               
1 54039U 22132E   26194.99488123  .00048489  00000+0  32776-3 0  9997
2 54039  97.2885 203.2817 0009670 348.0277  12.0756 15.74867223210164
GSLV R/B                
1 54149U 22138AN  26195.18439531  .00001277  00000+0  10682-3 0  9992
2 54149  87.3819 123.9189 0023645  55.5171 304.8289 14.97379841202852
XRISM                   
1 57800U 23137A   26195.11457593  .00001975  00000+0  10463-3 0  9992
2 57800  31.0007 185.1463 0007907 235.5039 124.4854 15.12664469156948
ACS3                    
1 59588U 24077B   26195.17861571  .00002910  00000+0  20356-2 0  9993
2 59588  97.1735 107.9844 0124346  37.9191 323.0652 13.95298697111803
SPACEMOBILE-003         
1 61045U 24163A   26195.16180117  .00000532  00000+0  38587-4 0  9994
2 61045  52.9668 185.3958 0004800 190.5328 169.5566 15.20702085101878
SPACEMOBILE-005         
1 61046U 24163B   26194.09371225  .00000320  00000+0  29081-4 0  9992
2 61046  52.9757 190.2542 0008516 188.4778 171.6074 15.20746160101707
SPACEMOBILE-001         
1 61047U 24163C   26192.44911905  .00000309  00000+0  28551-4 0  9993
2 61047  52.9736 197.5273 0007475 183.3179 176.7767 15.20792937101458
SPACEMOBILE-002         
1 61048U 24163D   26195.12751280  .00008581  00000+0  39857-3 0  9990
2 61048  52.9768 185.2488 0006347 186.0416 174.0502 15.20784147101864
SPACEMOBILE-004         
1 61049U 24163E   26193.40140888  .00012717  00000+0  58302-3 0  9998
2 61049  52.9682 192.9673 0006853 216.7757 143.2768 15.20795560101607
CZ-8A R/B               
1 66004U 25231K   26194.53449013 -.00000085  00000+0  28262-4 0  9997
2 66004  50.0044 287.2242 0116553 316.7652  42.4160 14.30161916 38717
SZ-21 MODULE            
1 66515U 25246C   26194.93053896  .00034507  00000+0  19171-3 0  9997
2 66515  41.4711 140.4717 0008041 212.4779 147.5572 15.78722659 37960
SPACEMOBILE-006         
1 67232U 25309A   26195.02627466  .00000488  00000+0  38590-4 0  9993
2 67232  52.9935 208.6897 0010252 211.3780 148.6603 15.18651444 30670
